[{"OBJECT_NAME":"STARLINK-31181","OBJECT_ID":"2024-005U","EPOCH":"2026-03-09T08:57:15.242976","MEAN_MOTION":15.27582211,"ECCENTRICITY":0.0002025,"INCLINATION":43.0097,"RA_OF_ASC_NODE":69.3095,"ARG_OF_PERICENTER":287.65,"MEAN_ANOMALY":72.413,"EPHEMERIS_TYPE":0,"CLASSIFICATION_TYPE":"U","NORAD_CAT_ID":58746,"ELEMENT_SET_NO":999,"REV_AT_EPOCH":12223,"BSTAR":-2.6716241e-5,"MEAN_MOTION_DOT":-9.98e-6,"MEAN_MOTION_DDOT":0},{"OBJECT_NAME":"LYNK TOWER 5","OBJECT_ID":"2024-043Z","EPOCH":"2026-03-09T22:11:51.175104","MEAN_MOTION":15.29454506,"ECCENTRICITY":0.00104056,"INCLINATION":97.5458,"RA_OF_ASC_NODE":204.7305,"ARG_OF_PERICENTER":234.6422,"MEAN_ANOMALY":125.3846,"EPHEMERIS_TYPE":0,"CLASSIFICATION_TYPE":"U","NORAD_CAT_ID":59121,"ELEMENT_SET_NO":999,"REV_AT_EPOCH":11186,"BSTAR":0.00031901545,"MEAN_MOTION_DOT":9.048e-5,"MEAN_MOTION_DDOT":0}]
